CALSPHERE 1             
1 00900U 64063C   23052.96458244  .00000923  00000+0  96967-3 0  9995
2 00900  90.1817  45.5873 0026834 356.1471  57.2434 13.74117803904923
CALSPHERE 2             
1 00902U 64063E   23053.02481622  .00000074  00000+0  97953-4 0  9995
2 00902  90.1947  48.8453 0019679 138.7660 282.7374 13.52737565692967
LCS 1                   
1 01361U 65034C   23052.73668619  .00000004  00000+0 -57549-3 0  9994
2 01361  32.1373 173.4114 0009965  41.9987 318.1273  9.89302817 89919
TEMPSAT 1               
1 01512U 65065E   23052.89830576  .00000036  00000+0  53062-4 0  9997
2 01512  89.9248 216.7436 0071300  51.0878  69.2638 13.33469583798610
CALSPHERE 4A            
1 01520U 65065H   23052.77829295  .00000161  00000+0  29554-3 0  9996
2 01520  89.9795 129.8378 0067074 280.3676 205.4976 13.35938128800948
OPS 5712 (P/L 160)      
1 02826U 67053A   23053.10880618  .00006475  00000+0  16029-2 0  9995
2 02826  69.9272  62.7746 0007291 319.3333  40.7257 14.52344457889459
OPS 5712 (P/L 153)      
1 02874U 67053H   23053.48569282  .00000082  00000+0  98056-4 0  9990
2 02874  69.9731 189.5733 0009150 312.0966  47.9361 13.96451714838219
SURCAL 150B             
1 02909U 67053J   23053.39840998  .00011245  00000+0  20115-2 0  9997
2 02909  69.9470  38.8680 0004472 315.8243  44.2542 14.67035117900727
RIGIDSPHERE 2 (LCS 4)   
1 05398U 71067E   23053.15792971  .00001183  00000+0  40449-3 0  9996
2 05398  87.6230 314.0998 0060658 282.2594  77.1816 14.34599789700280
COSMOS 2493 (SKRL-756 1)
1 39490U 13078A   23053.43587684  .00004330  00000+0  44048-3 0  9994
2 39490  82.4215 354.4623 0016565 353.6656   6.4350 14.90470618497247
COSMOS 2494 (SKRL-756 2)
1 39491U 13078B   23053.49848262  .00004413  00000+0  43135-3 0  9991
2 39491  82.4215 347.6265 0020098 325.4407  34.5505 14.92012243497603
